[{"OBJECT_NAME":"STARLINK-4044","OBJECT_ID":"2022-053G","EPOCH":"2026-03-09T13:03:24.658560","MEAN_MOTION":15.08832233,"ECCENTRICITY":0.00013757,"INCLINATION":53.2179,"RA_OF_ASC_NODE":154.7777,"ARG_OF_PERICENTER":90.5323,"MEAN_ANOMALY":269.5827,"EPHEMERIS_TYPE":0,"CLASSIFICATION_TYPE":"U","NORAD_CAT_ID":52662,"ELEMENT_SET_NO":999,"REV_AT_EPOCH":21102,"BSTAR":2.984641e-6,"MEAN_MOTION_DOT":-2.4e-6,"MEAN_MOTION_DDOT":0},{"OBJECT_NAME":"LEMUR-2-MARHISYAM","OBJECT_ID":"2024-149BW","EPOCH":"2026-03-09T17:46:07.876416","MEAN_MOTION":15.0901552,"ECCENTRICITY":0.00035778,"INCLINATION":97.6912,"RA_OF_ASC_NODE":151.2662,"ARG_OF_PERICENTER":107.3271,"MEAN_ANOMALY":252.8349,"EPHEMERIS_TYPE":0,"CLASSIFICATION_TYPE":"U","NORAD_CAT_ID":60536,"ELEMENT_SET_NO":999,"REV_AT_EPOCH":8547,"BSTAR":0.00082973442,"MEAN_MOTION_DOT":0.00013075,"MEAN_MOTION_DDOT":0}]
