STARLINK-4044           
1 52662U 22053G   26068.54403540 -.00000240  00000+0  29846-5 0  9990
2 52662  53.2179 154.7777 0001375  90.5323 269.5827 15.08832233211026
LEMUR-2-MARHISYAM       
1 60536U 24149BW  26068.74036894  .00013075  00000+0  82973-3 0  9990
2 60536  97.6912 151.2662 0003578 107.3271 252.8349 15.09015520 85478
